OBJECT_NAME,OBJECT_ID,EPOCH,MEAN_MOTION,ECCENTRICITY,INCLINATION,RA_OF_ASC_NODE,ARG_OF_PERICENTER,MEAN_ANOMALY,EPHEMERIS_TYPE,CLASSIFICATION_TYPE,NORAD_CAT_ID,ELEMENT_SET_NO,REV_AT_EPOCH,BSTAR,MEAN_MOTION_DOT,MEAN_MOTION_DDOT
FLOCK 4H-4,2025-276AT,2026-05-14T06:00:56.190240,15.19301317,.00062545,97.4237,208.3614,115.8191,244.3690,0,U,66707,999,2526,.17944211E-3,.3721E-4,0
FLOCK 4H-5,2025-276AU,2026-05-14T03:32:46.714560,15.20211723,.00023831,97.4187,208.3973,96.5296,263.6211,0,U,66708,999,2526,.17654938E-3,.3758E-4,0
FLOCK 4H-6,2025-276AV,2026-05-14T04:20:40.688736,15.19880654,.00048654,97.4239,208.4616,94.6964,265.4827,0,U,66709,999,2526,.17961304E-3,.3788E-4,0
FLOCK 4H-7,2025-276AW,2026-05-14T03:40:23.587392,15.19625507,.00036701,97.4196,208.2480,128.4700,231.6864,0,U,66710,999,2525,.20580257E-3,.4317E-4,0
FLOCK 4H-8,2025-276AX,2026-05-14T03:32:57.873984,15.19714100,.00049439,97.4236,208.3511,124.1435,236.0269,0,U,66711,999,2525,.21577119E-3,.4542E-4,0
FLOCK 4H-9,2025-276AY,2026-05-14T04:10:19.712928,15.20003306,.00049064,97.4227,208.4510,99.3966,260.7824,0,U,66712,999,2526,.18703546E-3,.3961E-4,0
FLOCK 4H-10,2025-276AZ,2026-05-14T04:10:26.610240,15.19424350,.00061145,97.4203,208.2377,116.5563,243.6299,0,U,66713,999,2525,.18370218E-3,.3825E-4,0
FLOCK 4H-11,2025-276BA,2026-05-14T04:16:40.067328,15.21668196,.00044722,97.4213,208.5736,125.6664,234.4989,0,U,66714,999,2527,.39547999E-3,.8879E-4,0
FLOCK 4H-12,2025-276BB,2026-05-14T03:53:55.199616,15.20059264,.00038116,97.4200,208.3938,91.4639,268.7033,0,U,66715,999,2557,.2242466E-3,.4771E-4,0
FLOCK 4H-13,2025-276BC,2026-05-14T03:21:30.235392,15.20304698,.00027059,97.4232,208.5023,83.8276,276.3268,0,U,66716,999,2526,.1541008E-3,.328E-4,0
FLOCK 4H-14,2025-276BD,2026-05-14T04:21:28.634688,15.20607852,.00023707,97.4219,208.5681,84.2293,275.9212,0,U,66717,999,2452,.17758615E-3,.3824E-4,0
FLOCK 4H-15,2025-276BE,2026-05-14T03:08:53.068992,15.19168729,.00058063,97.4228,208.2028,126.2750,233.9021,0,U,66718,999,2524,.18670711E-3,.3859E-4,0
FLOCK 4H-16,2025-276BF,2026-05-14T04:18:55.679904,15.19383820,.00059446,97.4246,208.3249,117.4610,242.7229,0,U,66719,999,2525,.19330509E-3,.4023E-4,0
FLOCK 4H-18,2025-276BH,2026-05-14T04:25:00.041664,15.19355389,.0005167,97.4190,208.1939,133.2184,226.9483,0,U,66721,999,2525,.17713579E-3,.3678E-4,0
FLOCK 4H-19,2025-276BJ,2026-05-14T04:02:06.483840,15.20641909,.00029673,97.4190,208.5242,75.7255,284.4310,0,U,66722,999,2456,.15708798E-3,.3378E-4,0
FLOCK 4H-20,2025-276BK,2026-05-14T04:13:14.278080,15.20755593,.00040177,97.4226,208.5951,75.9759,284.1923,0,U,66723,999,2452,.18898983E-3,.4093E-4,0
FLOCK 4H-21,2025-276BL,2026-05-14T02:59:51.048096,15.20372460,.00038473,97.4193,208.4343,78.2741,281.8926,0,U,66724,999,2451,.15557176E-3,.3319E-4,0
FLOCK 4H-22,2025-276BM,2026-05-14T03:30:37.226880,15.19738752,.00040068,97.4183,208.2275,130.7566,229.4018,0,U,66725,999,2525,.21997418E-3,.4635E-4,0
FLOCK 4H-23,2025-276BN,2026-05-14T05:57:45.073440,15.19332009,.00061298,97.4252,208.3954,111.1764,249.0127,0,U,66726,999,2526,.18438858E-3,.3829E-4,0
FLOCK 4H-24,2025-276BP,2026-05-14T04:06:58.821696,15.19432259,.00054957,97.4247,208.3427,122.3861,237.7906,0,U,66727,999,2525,.19414908E-3,.4047E-4,0
FLOCK 4H-25,2025-276BQ,2026-05-14T03:21:14.909760,15.20278228,.00019853,97.4201,208.4391,85.3194,274.8268,0,U,66728,999,2454,.17697821E-3,.3774E-4,0
FLOCK 4H-26,2025-276BR,2026-05-14T03:04:55.926912,15.19185169,.00063977,97.4201,208.1438,121.8853,238.3005,0,U,66729,999,2524,.19226832E-3,.3979E-4,0
FLOCK 4H-27,2025-276BS,2026-05-14T02:18:47.260512,15.20019424,.00023394,97.4178,208.2890,94.6864,265.4638,0,U,66730,999,2525,.18919603E-3,.4009E-4,0
FLOCK 4H-28,2025-276BT,2026-05-14T03:01:51.700512,15.19240910,.00059801,97.4188,208.1204,123.4328,236.7480,0,U,66731,999,2524,.18461536E-3,.3823E-4,0
FLOCK 4H-29,2025-276BU,2026-05-14T04:18:18.203904,15.19325715,.00047096,97.4181,208.1806,128.8915,231.2740,0,U,66732,999,2525,.17386794E-3,.3605E-4,0
FLOCK 4H-30,2025-276BV,2026-05-14T04:13:14.326464,15.19415437,.00057937,97.4243,208.3240,122.1717,238.0080,0,U,66733,999,2525,.18416162E-3,.3833E-4,0
FLOCK 4H-31,2025-276BW,2026-05-13T17:27:20.721888,15.19227910,.00051939,97.4179,207.7139,127.9524,232.2180,0,U,66734,999,2518,.1746185E-3,.3611E-4,0
FLOCK 4H-32,2025-276BX,2026-05-14T04:20:43.432800,15.19342414,.00062144,97.4235,208.2998,119.7629,240.4225,0,U,66735,999,2525,.17608308E-3,.3654E-4,0
FLOCK 4H-33,2025-276BY,2026-05-14T04:28:17.484672,15.20528900,.00035599,97.4231,208.5923,73.5462,286.6164,0,U,66736,999,2527,.17582597E-3,.3777E-4,0
FLOCK 4H-34,2025-276BZ,2026-05-14T03:45:38.138688,15.20068979,.00038911,97.4248,208.5112,79.3508,280.8165,0,U,66737,999,2451,.19865026E-3,.4219E-4,0
FLOCK 4H-35,2025-276CA,2026-05-14T03:19:45.090912,15.20279049,.0003144,97.4206,208.4501,72.7725,287.3854,0,U,66738,999,2455,.16055165E-3,.3418E-4,0
FLOCK 4H-36,2025-276CB,2026-05-14T04:01:26.271552,15.20018192,.00041467,97.4256,208.5163,86.5227,273.6482,0,U,66739,999,2526,.1829885E-3,.3875E-4,0
NUSAT-51 (YVONNE BRILL),2025-276CC,2026-05-14T02:59:45.245472,15.19847654,.00047326,97.4218,208.3415,109.8272,250.3473,0,U,66740,999,2525,.18674836E-3,.3937E-4,0
BLACK KITE-1,2025-276CD,2026-05-14T03:35:37.594752,15.20035730,.00072937,97.4255,208.3939,108.2074,251.9955,0,U,66741,999,2255,.25410135E-3,.5414E-4,0
MERCURY ONE (M1),2025-276CE,2026-05-14T03:37:45.351840,15.19326612,.00039653,97.4203,208.2770,93.6104,266.5584,0,U,66742,999,2525,.14525384E-3,.3001E-4,0
NUSAT-47,2025-276CF,2026-05-14T03:09:17.495136,15.19898329,.00033547,97.4200,208.2983,111.8945,248.2647,0,U,66743,999,2525,.18124493E-3,.3824E-4,0
AC1-001,2025-276CG,2026-05-14T03:56:50.138016,15.18188556,.00043823,97.4213,208.1380,111.5414,248.6287,0,U,66744,999,2524,.75532012E-4,.1477E-4,0
AC1-002,2025-276CH,2026-05-14T05:18:41.946048,15.18279199,.00037891,97.4205,208.1946,102.2769,257.8889,0,U,66745,999,2525,.74739696E-4,.1465E-4,0
UMBRA-11,2025-276CL,2026-05-14T03:46:17.378112,15.25187778,.00038236,97.4211,209.0375,107.4518,252.7138,0,U,66748,999,2530,.57428986E-3,.14356E-3,0
PIAST-S1,2025-276CM,2026-05-14T04:17:05.813664,15.19892927,.00040346,97.4201,208.3876,92.0303,268.1394,0,U,66749,999,2526,.16892822E-3,.3559E-4,0
TRANSPORTER-15 OBJECT CN,2025-276CN,2026-05-14T06:00:49.128768,15.19574977,.00033305,97.4240,208.5306,76.4911,283.6695,0,U,66750,999,2527,.12690972E-3,.2632E-4,0
ICEYE-X58,2025-276CP,2026-05-14T04:02:22.968096,15.17348348,.00053334,97.4179,208.2776,71.7663,288.4151,0,U,66751,999,2525,.1080277E-3,.209E-4,0
ICEYE-X59,2025-276CQ,2026-05-14T03:37:42.673440,15.02021462,.00014896,97.4214,206.9384,102.4466,257.6926,0,U,66752,999,2516,.12826971E-3,.1625E-4,0
ICEYE-X60,2025-276CR,2026-05-14T03:28:18.682752,15.11406379,.00039623,97.4091,207.8275,131.7935,228.3635,0,U,66753,999,2522,.17503071E-3,.2894E-4,0
ICEYE-X61,2025-276CS,2026-05-14T03:40:30.851040,15.18181436,.000487,97.4211,208.2854,98.3560,261.8226,0,U,66754,999,2525,.11782563E-3,.2341E-4,0
ICEYE-X62,2025-276CT,2026-05-14T03:12:13.633632,15.09882592,.00038666,97.4208,207.4103,110.4058,249.7587,0,U,66755,999,2519,.88638122E-4,.1374E-4,0
MAUVE,2025-276CU,2026-05-14T03:59:02.268672,15.20178281,.00033274,97.4217,208.4355,87.0231,273.1385,0,U,66756,999,2526,.20923403E-3,.4462E-4,0
PIAST-S2,2025-276CV,2026-05-14T06:52:53.859072,15.20124343,.00031793,97.4226,208.6002,84.9739,275.1859,0,U,66757,999,2528,.18019915E-3,.3827E-4,0
PIAST-M,2025-276CW,2026-05-14T03:59:10.722048,15.19912988,.00027363,97.4196,208.3916,89.4891,270.6658,0,U,66758,999,2526,.16061341E-3,.3382E-4,0
TRANSPORTER-15 OBJECT CX,2025-276CX,2026-05-14T03:03:05.232096,15.20521503,.00026931,97.4178,208.4111,80.6343,279.5197,0,U,66759,999,2526,.18632474E-3,.4006E-4,0
TRANSPORTER-15 OBJECT CY,2025-276CY,2026-05-14T03:45:36.422784,15.19951702,.00021243,97.4199,208.4117,83.0245,277.1232,0,U,66760,999,2526,.15087857E-3,.3177E-4,0
TRANSPORTER-15 OBJECT CZ,2025-276CZ,2026-05-14T06:00:11.328768,15.21712759,.0002079,97.4199,208.7388,83.5343,276.6130,0,U,66761,999,2529,.25006797E-3,.5593E-4,0
HYDROGNSS-1,2025-276DA,2026-05-14T04:05:25.507104,15.11268545,.00115989,97.4211,207.6656,160.4894,199.6783,0,U,66762,999,2521,.11159758E-3,.1817E-4,0
HYDROGNSS-2,2025-276DB,2026-05-14T03:22:54.954048,15.11419117,.00134125,97.4209,207.5631,112.5594,247.7058,0,U,66763,999,2520,.11903724E-3,.1952E-4,0
NAHLA,2025-276DC,2026-05-14T05:57:27.623232,15.18712128,.00045,97.4210,208.3119,93.0677,267.1072,0,U,66764,999,2526,.88399638E-4,.1767E-4,0
TRANSPORTER-15 OBJECT DD,2025-276DD,2026-05-14T04:05:03.593472,15.22925330,.00016305,97.4226,208.8964,100.0131,260.1289,0,U,66765,999,2529,.37350436E-3,.8697E-4,0
T.MICROSAT-1,2025-276DE,2026-05-14T06:03:26.501184,15.20431166,.00011474,97.4172,208.5194,91.7414,268.3952,0,U,66766,999,2528,.16248562E-3,.3475E-4,0
ACCENTURE-1,2025-276DF,2026-05-14T03:51:09.470592,15.19721374,.00010338,97.4175,208.3466,81.6097,278.5255,0,U,66767,999,2526,.14839665E-3,.3102E-4,0
LEMUR-2-TEODOR,2025-276DG,2026-05-14T03:58:00.365664,15.20661262,.00009289,97.4161,208.4654,110.0879,250.0457,0,U,66768,999,2527,.17441072E-3,.3761E-4,0
SPEQTRE,2025-276DH,2026-05-14T03:10:25.885056,15.20179703,.00017232,97.4216,208.4846,53.0787,307.0606,0,U,66769,999,2526,.14802398E-3,.3136E-4,0
LILIUM-3,2025-276DJ,2026-05-14T04:14:37.777632,15.19347492,.00027508,97.4252,208.5001,49.0741,311.0732,0,U,66770,999,2526,.75972091E-4,.1538E-4,0
GYEONGGISAT-1,2025-276DK,2026-05-14T02:56:24.987552,15.20345727,.00020597,97.4244,208.5550,50.0773,310.0643,0,U,66771,999,2526,.17032285E-3,.3637E-4,0
IHI-SAT2,2025-276DL,2026-05-14T03:22:29.525664,15.20997514,.0001319,97.4244,208.6711,46.4489,313.6856,0,U,66772,999,2527,.19672198E-3,.4293E-4,0
TRANSPORTER-15 OBJECT DM,2025-276DM,2026-05-14T02:58:08.855904,15.20216067,.0001586,97.4229,208.5244,37.2610,322.8735,0,U,66773,999,2526,.13778611E-3,.2918E-4,0
